[{"OBJECT_NAME":"STARLINK-3088","OBJECT_ID":"2021-082AK","EPOCH":"2026-03-09T21:56:53.146464","MEAN_MOTION":14.97522709,"ECCENTRICITY":0.00022372,"INCLINATION":69.9979,"RA_OF_ASC_NODE":274.6741,"ARG_OF_PERICENTER":269.4701,"MEAN_ANOMALY":90.6201,"EPHEMERIS_TYPE":0,"CLASSIFICATION_TYPE":"U","NORAD_CAT_ID":49163,"ELEMENT_SET_NO":999,"REV_AT_EPOCH":24764,"BSTAR":3.6026631e-5,"MEAN_MOTION_DOT":3.29e-6,"MEAN_MOTION_DDOT":0},{"OBJECT_NAME":"COSMOS 2151","OBJECT_ID":"1991-042A","EPOCH":"2026-03-09T21:12:10.736640","MEAN_MOTION":15.00104908,"ECCENTRICITY":0.00139956,"INCLINATION":82.493,"RA_OF_ASC_NODE":83.4892,"ARG_OF_PERICENTER":63.3058,"MEAN_ANOMALY":296.9597,"EPHEMERIS_TYPE":0,"CLASSIFICATION_TYPE":"U","NORAD_CAT_ID":21422,"ELEMENT_SET_NO":999,"REV_AT_EPOCH":86322,"BSTAR":0.00015116122,"MEAN_MOTION_DOT":1.915e-5,"MEAN_MOTION_DDOT":0}]
